STARLINK-37700          
1 69215U 26115E   26168.50854288  .00027112  00000+0  49809-3 0  9996
2 69215  97.2831 185.5023 0001371  94.4127 265.7281 15.49210039  4704
STARLINK-37766          
1 69216U 26115F   26168.50003471  .00094891  00000+0  17281-2 0  9993
2 69216  97.2844 185.8476 0001420  82.1241 343.9538 15.49145981  4741
STARLINK-37763          
1 69217U 26115G   26168.50003471  .00089535  00000+0  16315-2 0  9990
2 69217  97.2846 185.7931 0001540  96.6964 201.2272 15.49149961  4747
STARLINK-37724          
1 69218U 26115H   26168.50003471 -.02436981  00000+0 -48543-1 0  9993
2 69218  97.2849 185.8907 0001453  73.8068  81.0345 15.50215749  4745
STARLINK-37758          
1 69219U 26115J   26168.50003471 -.02335705  00000+0 -46343-1 0  9992
2 69219  97.2851 185.8992 0001650  81.0723  95.5348 15.50769039  4740
STARLINK-37201          
1 69220U 26115K   26168.50003471 -.02451516  00000+0 -48679-1 0  9997
2 69220  97.2854 185.8971 0001741  78.3362  90.5865 15.50321978  4746
STARLINK-37728          
1 69221U 26115L   26168.50003471  .00107770  00000+0  19601-2 0  9998
2 69221  97.2849 185.8851 0000745 107.7530  39.7470 15.49132262  4746
STARLINK-37760          
1 69222U 26115M   26168.50003471 -.02428707  00000+0 -46629-1 0  9998
2 69222  97.2844 185.9058 0002366 101.1853  96.5223 15.51836365  4744
STARLINK-37759          
1 69223U 26115N   26168.50003471  .00092416  00000+0  16831-2 0  9992
2 69223  97.2845 185.7973 0001404 112.2108 194.2459 15.49153766  4749
STARLINK-37725          
1 69224U 26115P   26168.50003471  .00082015  00000+0  14957-2 0  9994
2 69224  97.2843 185.8023 0001338 102.5682 216.4351 15.49155457  4747
STARLINK-37770          
1 69225U 26115Q   26168.50003471 -.02597516  00000+0 -47246-1 0  9992
2 69225  97.2850 185.9163 0001913 112.0096 116.8086 15.52964357  4745
STARLINK-37736          
1 69226U 26115R   26168.50003471 -.02735696  00000+0 -51643-1 0  9992
2 69226  97.2850 185.9084 0001892 121.0184  78.1300 15.52133937  4743
STARLINK-37737          
1 69227U 26115S   26168.50003471 -.02543143  00000+0 -44795-1 0  9997
2 69227  97.2851 185.9271 0001929 104.8116 150.0210 15.53770358  4765
STARLINK-37618          
1 69228U 26115T   26168.50003471  .00090251  00000+0  16442-2 0  9990
2 69228  97.2841 185.7940 0001590  93.0480 206.8685 15.49152336  4742
STARLINK-37679          
1 69229U 26115U   26168.50003471  .00083453  00000+0  15219-2 0  9998
2 69229  97.2842 185.7995 0001111 103.7323 210.5670 15.49151727  4747
STARLINK-37746          
1 69230U 26115V   26168.50003471  .00085481  00000+0  15581-2 0  9995
2 69230  97.2846 185.7806 0000852 160.9982 107.7601 15.49156959  4744
STARLINK-37557          
1 69231U 26115W   26168.47674362  .00027983  00000+0  51385-3 0  9991
2 69231  97.2838 185.6992 0001521  97.2619 262.8805 15.49217255  4717
STARLINK-37745          
1 69232U 26115X   26168.50003471 -.02407213  00000+0 -40936-1 0  9993
2 69232  97.2845 185.9542 0001788 111.4867 201.1775 15.55128991  4749
STARLINK-37739          
1 69233U 26115Y   26168.50003471  .00095723  00000+0  17430-2 0  9993
2 69233  97.2847 185.7766 0001165  79.5764 178.3761 15.49145927  4748
STARLINK-37755          
1 69234U 26115Z   26168.51300109  .00176779  00000+0  11590-2 0  9995
2 69234  97.2825 185.9564 0001101 123.6292 236.5079 15.75244629  4736
TJS-24                  
1 69235U 26116A   26167.93662178 -.00000235  00000+0  00000+0 0  9994
2 69235   0.0168  72.7136 0000262 322.2296 297.7134  1.00272946   222
STARLINK-37665          
1 69238U 26117A   26168.43494360  .00159102  00000+0  75323-3 0  9991
2 69238  53.1571 242.3796 0001136  89.6168 270.4986 15.82036292  3012
STARLINK-37558          
1 69239U 26117B   26168.49717141  .00241482  00000+0  11298-2 0  9996
2 69239  53.1571 242.0564 0001782  42.3636 317.7525 15.82051884  3025
STARLINK-37680          
1 69240U 26117C   26168.49572751  .00187900  00000+0  88559-3 0  9993
2 69240  53.1574 242.0455 0000865  84.3381 275.7741 15.82046004  3024
STARLINK-37742          
1 69241U 26117D   26168.49394647  .00188724  00000+0  88972-3 0  9994
2 69241  53.1574 242.0350 0001486  47.1402 312.9745 15.82037369  3022
STARLINK-37718          
1 69242U 26117E   26168.42953171  .00314702  00000+0  14554-2 0  9992
2 69242  53.1574 242.3421 0001037 104.3915 255.7223 15.82103347  3016
STARLINK-37735          
1 69243U 26117F   26168.49260705  .00302081  00000+0  14013-2 0  9991
2 69243  53.1578 242.0249 0001684  25.7949 334.3158 15.82071193  3022
STARLINK-37757          
1 69244U 26117G   26168.42703481  .00209534  00000+0  98483-3 0  9991
2 69244  53.1575 242.3255 0000983  61.3552 298.7570 15.82042881  3019
STARLINK-37767          
1 69245U 26117H   26168.48594301  .00212525  00000+0  99801-3 0  9996
2 69245  53.1571 241.9781 0001031  80.2614 279.8526 15.82053250  3023
