OBJECT_NAME,OBJECT_ID,EPOCH,MEAN_MOTION,ECCENTRICITY,INCLINATION,RA_OF_ASC_NODE,ARG_OF_PERICENTER,MEAN_ANOMALY,EPHEMERIS_TYPE,CLASSIFICATION_TYPE,NORAD_CAT_ID,ELEMENT_SET_NO,REV_AT_EPOCH,BSTAR,MEAN_MOTION_DOT,MEAN_MOTION_DDOT
STARLINK-37700,2026-115E,2026-06-17T12:12:18.104832,15.49210039,.0001371,97.2831,185.5023,94.4127,265.7281,0,U,69215,999,470,.49809E-3,.27112E-3,0
STARLINK-37766,2026-115F,2026-06-17T12:00:02.998944,15.49145981,.000142,97.2844,185.8476,82.1241,343.9538,0,U,69216,999,474,.17281E-2,.94891E-3,0
STARLINK-37763,2026-115G,2026-06-17T12:00:02.998944,15.49149961,.000154,97.2846,185.7931,96.6964,201.2272,0,U,69217,999,474,.16315E-2,.89535E-3,0
STARLINK-37724,2026-115H,2026-06-17T12:00:02.998944,15.50215749,.0001453,97.2849,185.8907,73.8068,81.0345,0,U,69218,999,474,-.48543E-1,-.2436981E-1,0
STARLINK-37758,2026-115J,2026-06-17T12:00:02.998944,15.50769039,.000165,97.2851,185.8992,81.0723,95.5348,0,U,69219,999,474,-.46343E-1,-.2335705E-1,0
STARLINK-37201,2026-115K,2026-06-17T12:00:02.998944,15.50321978,.0001741,97.2854,185.8971,78.3362,90.5865,0,U,69220,999,474,-.48679E-1,-.2451516E-1,0
STARLINK-37728,2026-115L,2026-06-17T12:00:02.998944,15.49132262,.0000745,97.2849,185.8851,107.7530,39.7470,0,U,69221,999,474,.19601E-2,.10777E-2,0
STARLINK-37760,2026-115M,2026-06-17T12:00:02.998944,15.51836365,.0002366,97.2844,185.9058,101.1853,96.5223,0,U,69222,999,474,-.46629E-1,-.2428707E-1,0
STARLINK-37759,2026-115N,2026-06-17T12:00:02.998944,15.49153766,.0001404,97.2845,185.7973,112.2108,194.2459,0,U,69223,999,474,.16831E-2,.92416E-3,0
STARLINK-37725,2026-115P,2026-06-17T12:00:02.998944,15.49155457,.0001338,97.2843,185.8023,102.5682,216.4351,0,U,69224,999,474,.14957E-2,.82015E-3,0
STARLINK-37770,2026-115Q,2026-06-17T12:00:02.998944,15.52964357,.0001913,97.2850,185.9163,112.0096,116.8086,0,U,69225,999,474,-.47246E-1,-.2597516E-1,0
STARLINK-37736,2026-115R,2026-06-17T12:00:02.998944,15.52133937,.0001892,97.2850,185.9084,121.0184,78.1300,0,U,69226,999,474,-.51643E-1,-.2735696E-1,0
STARLINK-37737,2026-115S,2026-06-17T12:00:02.998944,15.53770358,.0001929,97.2851,185.9271,104.8116,150.0210,0,U,69227,999,476,-.44795E-1,-.2543143E-1,0
STARLINK-37618,2026-115T,2026-06-17T12:00:02.998944,15.49152336,.000159,97.2841,185.7940,93.0480,206.8685,0,U,69228,999,474,.16442E-2,.90251E-3,0
STARLINK-37679,2026-115U,2026-06-17T12:00:02.998944,15.49151727,.0001111,97.2842,185.7995,103.7323,210.5670,0,U,69229,999,474,.15219E-2,.83453E-3,0
STARLINK-37746,2026-115V,2026-06-17T12:00:02.998944,15.49156959,.0000852,97.2846,185.7806,160.9982,107.7601,0,U,69230,999,474,.15581E-2,.85481E-3,0
STARLINK-37557,2026-115W,2026-06-17T11:26:30.648768,15.49217255,.0001521,97.2838,185.6992,97.2619,262.8805,0,U,69231,999,471,.51385E-3,.27983E-3,0
STARLINK-37745,2026-115X,2026-06-17T12:00:02.998944,15.55128991,.0001788,97.2845,185.9542,111.4867,201.1775,0,U,69232,999,474,-.40936E-1,-.2407213E-1,0
STARLINK-37739,2026-115Y,2026-06-17T12:00:02.998944,15.49145927,.0001165,97.2847,185.7766,79.5764,178.3761,0,U,69233,999,474,.1743E-2,.95723E-3,0
STARLINK-37755,2026-115Z,2026-06-17T12:18:43.294176,15.75244629,.0001101,97.2825,185.9564,123.6292,236.5079,0,U,69234,999,473,.1159E-2,.176779E-2,0
TJS-24,2026-116A,2026-06-16T22:28:44.121792,1.00272946,.0000262,0.0168,72.7136,322.2296,297.7134,0,U,69235,999,22,0,-.235E-5,0
STARLINK-37665,2026-117A,2026-06-17T10:26:19.127040,15.82036292,.0001136,53.1571,242.3796,89.6168,270.4986,0,U,69238,999,301,.75323E-3,.159102E-2,0
STARLINK-37558,2026-117B,2026-06-17T11:55:55.609824,15.82051884,.0001782,53.1571,242.0564,42.3636,317.7525,0,U,69239,999,302,.11298E-2,.241482E-2,0
STARLINK-37680,2026-117C,2026-06-17T11:53:50.856864,15.82046004,.0000865,53.1574,242.0455,84.3381,275.7741,0,U,69240,999,302,.88559E-3,.1879E-2,0
STARLINK-37742,2026-117D,2026-06-17T11:51:16.975008,15.82037369,.0001486,53.1574,242.0350,47.1402,312.9745,0,U,69241,999,302,.88972E-3,.188724E-2,0
STARLINK-37718,2026-117E,2026-06-17T10:18:31.539744,15.82103347,.0001037,53.1574,242.3421,104.3915,255.7223,0,U,69242,999,301,.14554E-2,.314702E-2,0
STARLINK-37735,2026-117F,2026-06-17T11:49:21.249120,15.82071193,.0001684,53.1578,242.0249,25.7949,334.3158,0,U,69243,999,302,.14013E-2,.302081E-2,0
STARLINK-37757,2026-117G,2026-06-17T10:14:55.807584,15.82042881,.0000983,53.1575,242.3255,61.3552,298.7570,0,U,69244,999,301,.98483E-3,.209534E-2,0
STARLINK-37767,2026-117H,2026-06-17T11:39:45.476064,15.82053250,.0001031,53.1571,241.9781,80.2614,279.8526,0,U,69245,999,302,.99801E-3,.212525E-2,0
